{
    "links": {
        "self": "http://www.neowsapp.com/rest/v1/neo/3761036?api_key=iIulBulltgU6a56xZRHN4H3l9WmuAYTsLGpBGhQ2"
    },
    "id": "3761036",
    "neo_reference_id": "3761036",
    "name": "(2016 TC57)",
    "designation": "2016 TC57",
    "nasa_jpl_url": "http://ssd.jpl.nasa.gov/sbdb.cgi?sstr=3761036",
    "absolute_magnitude_h": 27.2,
    "estimated_diameter": {
        "kilometers": {
            "estimated_diameter_min": 0.0096506147,
            "estimated_diameter_max": 0.0215794305
        },
        "meters": {
            "estimated_diameter_min": 9.6506146958,
            "estimated_diameter_max": 21.5794304844
        },
        "miles": {
            "estimated_diameter_min": 0.0059966121,
            "estimated_diameter_max": 0.0134088323
        },
        "feet": {
            "estimated_diameter_min": 31.6621227185,
            "estimated_diameter_max": 70.7986587106
        }
    },
    "is_potentially_hazardous_asteroid": false,
    "close_approach_data": [
        {
            "close_approach_date": "1910-11-20",
            "close_approach_date_full": "1910-Nov-20 19:52",
            "epoch_date_close_approach": -1865477280000,
            "relative_velocity": {
                "kilometers_per_second": "21.6253186614",
                "kilometers_per_hour": "77851.1471808632",
                "miles_per_hour": "48373.6753135758"
            },
            "miss_distance": {
                "astronomical": "0.4233374392",
                "lunar": "164.6782638488",
                "kilometers": "63330379.195574504",
                "miles": "39351672.8708119952"
            },
            "orbiting_body": "Earth"
        },
        {
            "close_approach_date": "2016-10-11",
            "close_approach_date_full": "2016-Oct-11 18:32",
            "epoch_date_close_approach": 1476210720000,
            "relative_velocity": {
                "kilometers_per_second": "7.9316918914",
                "kilometers_per_hour": "28554.0908092172",
                "miles_per_hour": "17742.4015919827"
            },
            "miss_distance": {
                "astronomical": "0.0036023155",
                "lunar": "1.4013007295",
                "kilometers": "538898.725867985",
                "miles": "334856.140768793"
            },
            "orbiting_body": "Moon"
        },
        {
            "close_approach_date": "2016-10-11",
            "close_approach_date_full": "2016-Oct-11 22:42",
            "epoch_date_close_approach": 1476225720000,
            "relative_velocity": {
                "kilometers_per_second": "8.8038430665",
                "kilometers_per_hour": "31693.8350395683",
                "miles_per_hour": "19693.3165555584"
            },
            "miss_distance": {
                "astronomical": "0.0031669894",
                "lunar": "1.2319588766",
                "kilometers": "473774.868552578",
                "miles": "294390.0522704564"
            },
            "orbiting_body": "Earth"
        }
    ],
    "orbital_data": {
        "orbit_id": "8",
        "orbit_determination_date": "2018-05-10 06:26:02",
        "first_observation_date": "2016-10-13",
        "last_observation_date": "2016-11-05",
        "data_arc_in_days": 23,
        "observations_used": 38,
        "orbit_uncertainty": "7",
        "minimum_orbit_intersection": ".00508486",
        "jupiter_tisserand_invariant": "3.470",
        "epoch_osculation": "2459000.5",
        "eccentricity": ".5475330850734961",
        "semi_major_axis": "2.176583892243474",
        "inclination": "4.463605903642643",
        "ascending_node_longitude": "20.88330768035335",
        "orbital_period": "1172.901503963961",
        "perihelion_distance": ".9848321988021268",
        "perihelion_argument": "339.753921472972",
        "aphelion_distance": "3.368335585684822",
        "perihelion_time": "2458831.065591155944",
        "mean_anomaly": "52.00469688010072",
        "mean_motion": ".3069311436496048",
        "equinox": "J2000",
        "orbit_class": {
            "orbit_class_type": "APO",
            "orbit_class_description": "Near-Earth asteroid orbits which cross the Earth’s orbit similar to that of 1862 Apollo",
            "orbit_class_range": "a (semi-major axis) > 1.0 AU; q (perihelion) < 1.017 AU"
        }
    },
    "is_sentry_object": false
}